{
  "norad_id": 66046,
  "name": "QIANFAN-104",
  "history": [
    {
      "epoch": "2026-03-28T21:39:39.058560Z",
      "apogee_km": 1070.2156593400714,
      "perigee_km": 1066.932702248907,
      "latitude_deg": 5.291886858919768e-05,
      "longitude_deg": -100.0323584897382,
      "height_km": 1071.2651734728993,
      "semi_major_axis_km": 7446.711180794489,
      "eccentricity": 0.00022043,
      "inclination_deg": 88.9981,
      "raan_deg": 51.1967,
      "arg_perigee_deg": 80.9363,
      "mean_anomaly_deg": 279.2038,
      "mean_motion_rev_day": 13.51002015
    },
    {
      "epoch": "2026-03-29T02:59:36.228768Z",
      "apogee_km": 1070.2182749552694,
      "perigee_km": 1066.9298073594946,
      "latitude_deg": 5.675324524956834e-06,
      "longitude_deg": 179.73803157871092,
      "height_km": 1071.266666667057,
      "semi_major_axis_km": 7446.711041157382,
      "eccentricity": 0.0002208,
      "inclination_deg": 88.9982,
      "raan_deg": 51.1743,
      "arg_perigee_deg": 81.0092,
      "mean_anomaly_deg": 279.1309,
      "mean_motion_rev_day": 13.51002053
    },
    {
      "epoch": "2026-03-30T03:52:43.018464Z",
      "apogee_km": 1070.218420524442,
      "perigee_km": 1066.9284638510844,
      "latitude_deg": 1.6888239041652755e-06,
      "longitude_deg": 165.33284209692746,
      "height_km": 1071.2629745759593,
      "semi_major_axis_km": 7446.710442187763,
      "eccentricity": 0.0002209,
      "inclination_deg": 88.9984,
      "raan_deg": 51.0694,
      "arg_perigee_deg": 80.9042,
      "mean_anomaly_deg": 279.2359,
      "mean_motion_rev_day": 13.51002216
    },
    {
      "epoch": "2026-03-30T05:39:22.073760Z",
      "apogee_km": 1070.218071199427,
      "perigee_km": 1066.9287102856279,
      "latitude_deg": 1.0533052582756477e-05,
      "longitude_deg": 138.58961197445987,
      "height_km": 1071.2612608984618,
      "semi_major_axis_km": 7446.710390742527,
      "eccentricity": 0.00022086,
      "inclination_deg": 88.9984,
      "raan_deg": 51.0619,
      "arg_perigee_deg": 80.8439,
      "mean_anomaly_deg": 279.2962,
      "mean_motion_rev_day": 13.5100223
    },
    {
      "epoch": "2026-03-30T12:45:58.296672Z",
      "apogee_km": 1070.2179278560452,
      "perigee_km": 1066.9285670055506,
      "latitude_deg": 1.4899162562117385e-05,
      "longitude_deg": 31.616683725465904,
      "height_km": 1071.2593891105912,
      "semi_major_axis_km": 7446.710247430798,
      "eccentricity": 0.00022086,
      "inclination_deg": 88.9985,
      "raan_deg": 51.0319,
      "arg_perigee_deg": 80.7829,
      "mean_anomaly_deg": 279.3572,
      "mean_motion_rev_day": 13.51002269
    },
    {
      "epoch": "2026-03-30T19:52:34.517856Z",
      "apogee_km": 1070.2166988253011,
      "perigee_km": 1066.9292742346488,
      "latitude_deg": -6.551007317873326e-05,
      "longitude_deg": -75.35623877815861,
      "height_km": 1071.2571809314895,
      "semi_major_axis_km": 7446.709986529975,
      "eccentricity": 0.00022073,
      "inclination_deg": 88.9985,
      "raan_deg": 51.0019,
      "arg_perigee_deg": 80.7081,
      "mean_anomaly_deg": 279.4319,
      "mean_motion_rev_day": 13.5100234
    },
    {
      "epoch": "2026-03-31T20:45:41.286816Z",
      "apogee_km": 1070.2194600091852,
      "perigee_km": 1066.925035837905,
      "latitude_deg": -2.307794369549161e-06,
      "longitude_deg": -89.76133967332566,
      "height_km": 1071.249649482111,
      "semi_major_axis_km": 7446.709247923545,
      "eccentricity": 0.0002212,
      "inclination_deg": 88.9987,
      "raan_deg": 50.897,
      "arg_perigee_deg": 80.4891,
      "mean_anomaly_deg": 279.651,
      "mean_motion_rev_day": 13.51002541
    },
    {
      "epoch": "2026-04-01T19:52:08.997024Z",
      "apogee_km": 1070.223406117554,
      "perigee_km": 1066.9200461266455,
      "latitude_deg": 3.726947556815526e-05,
      "longitude_deg": -77.42309638112546,
      "height_km": 1071.2456419335656,
      "semi_major_axis_km": 7446.7087261220995,
      "eccentricity": 0.0002218,
      "inclination_deg": 88.9989,
      "raan_deg": 50.7997,
      "arg_perigee_deg": 80.393,
      "mean_anomaly_deg": 279.7472,
      "mean_motion_rev_day": 13.51002683
    },
    {
      "epoch": "2026-04-02T20:45:15.737472Z",
      "apogee_km": 1070.228168955161,
      "perigee_km": 1066.9128947619774,
      "latitude_deg": -3.960654638555886e-05,
      "longitude_deg": -91.828081183543,
      "height_km": 1071.238197640282,
      "semi_major_axis_km": 7446.7075318585685,
      "eccentricity": 0.0002226,
      "inclination_deg": 88.9991,
      "raan_deg": 50.6948,
      "arg_perigee_deg": 80.2087,
      "mean_anomaly_deg": 279.9315,
      "mean_motion_rev_day": 13.51003008
    },
    {
      "epoch": "2026-04-02T22:31:54.790176Z",
      "apogee_km": 1070.2279538624744,
      "perigee_km": 1066.912977567038,
      "latitude_deg": -3.766295774092634e-05,
      "longitude_deg": -118.5713006303088,
      "height_km": 1071.238276974792,
      "semi_major_axis_km": 7446.707465714756,
      "eccentricity": 0.00022258,
      "inclination_deg": 88.9992,
      "raan_deg": 50.6873,
      "arg_perigee_deg": 80.2129,
      "mean_anomaly_deg": 279.9273,
      "mean_motion_rev_day": 13.51003026
    }
  ]
}